STARLINK-36767          
1 67814U 26032T   26066.57911387  .00201562  00000+0  13163-2 0  9991
2 67814  97.2843 252.9972 0001593  84.3631 275.7816 15.75264678  4450
STARLINK-36797          
1 67815U 26032U   26066.57029108  .00250934  00000+0  16277-2 0  9999
2 67815  97.2850 253.0097 0001427  92.0870 268.0559 15.75283510  4451
STARLINK-36343          
1 67816U 26032V   26066.58334491 -.01920722  00000+0 -13573-1 0  9992
2 67816  97.2841 253.0696 0002096  77.0326 107.4405 15.77145047  4381
STARLINK-36756          
1 67817U 26032W   26066.56146848  .00122352  00000+0  80776-3 0  9999
2 67817  97.2847 253.0212 0001477  61.1125 299.0288 15.75238758  4449
STARLINK-36346          
1 67818U 26032X   26066.58334491 -.00230909  00000+0 -15809-2 0  9999
2 67818  97.2842 253.0810 0001615  71.2534 138.7712 15.75312615  4445
STARLINK-36788          
1 67819U 26032Y   26066.57240700  .00247233  00000+0  16048-2 0  9990
2 67819  97.2849 253.0062 0001379  76.8988 283.2432 15.75277069  4452
STARLINK-36353          
1 67820U 26032Z   26066.56852659  .00238601  00000+0  15504-2 0  9998
2 67820  97.2848 253.0111 0001442  83.9076 276.2353 15.75277147  4457
STARLINK-36644          
1 67821U 26033A   26066.61090938  .00921648  00000+0  38535-2 0  9999
2 67821  42.9977 284.2648 0002596 251.6239 108.4351 15.82450958  4292
STARLINK-36643          
1 67822U 26033B   26066.61015735  .00892022  00000+0  37467-2 0  9998
2 67822  42.9975 284.2589 0003523 260.5692  99.4782 15.82429652  4292
STARLINK-36646          
1 67823U 26033C   26066.60940888  .00321629  00000+0  14700-2 0  9999
2 67823  42.9975 284.2532 0002068 263.5458  96.5178 15.82072260  4293
STARLINK-36647          
1 67824U 26033D   26066.60866017  .00262324  00000+0  12095-2 0  9992
2 67824  42.9977 284.2471 0001890 281.1290  78.9369 15.82042198  4293
STARLINK-36648          
1 67825U 26033E   26066.60790918  .00443706  00000+0  19961-2 0  9993
2 67825  42.9978 284.2412 0001998 287.4872  72.5782 15.82096027  4293
