CCSDS_OMM_VERS = 2.0
CREATION_DATE  = 
ORIGINATOR     = 

OBJECT_NAME    = STARLINK-36767
OBJECT_ID      = 2026-032T
CENTER_NAME    = EARTH
REF_FRAME      = TEME
TIME_SYSTEM    = UTC
MEAN_ELEMENT_THEORY = SGP/SGP4

EPOCH          = 2026-03-07T13:53:55.438368
MEAN_MOTION    = 15.75264678
ECCENTRICITY   = .00015933
INCLINATION    = 97.2843
RA_OF_ASC_NODE = 252.9972
ARG_OF_PERICENTER = 84.3631
MEAN_ANOMALY   = 275.7816

EPHEMERIS_TYPE = 0
CLASSIFICATION_TYPE = U
NORAD_CAT_ID   = 67814
ELEMENT_SET_NO = 999
REV_AT_EPOCH   = 445
BSTAR          = .13163205E-2
MEAN_MOTION_DOT = .201562E-2
MEAN_MOTION_DDOT = 0

CCSDS_OMM_VERS = 2.0
CREATION_DATE  = 
ORIGINATOR     = 

OBJECT_NAME    = STARLINK-36797
OBJECT_ID      = 2026-032U
CENTER_NAME    = EARTH
REF_FRAME      = TEME
TIME_SYSTEM    = UTC
MEAN_ELEMENT_THEORY = SGP/SGP4

EPOCH          = 2026-03-07T13:41:13.149312
MEAN_MOTION    = 15.75283510
ECCENTRICITY   = .00014274
INCLINATION    = 97.2850
RA_OF_ASC_NODE = 253.0097
ARG_OF_PERICENTER = 92.0870
MEAN_ANOMALY   = 268.0559

EPHEMERIS_TYPE = 0
CLASSIFICATION_TYPE = U
NORAD_CAT_ID   = 67815
ELEMENT_SET_NO = 999
REV_AT_EPOCH   = 445
BSTAR          = .16276958E-2
MEAN_MOTION_DOT = .250934E-2
MEAN_MOTION_DDOT = 0

CCSDS_OMM_VERS = 2.0
CREATION_DATE  = 
ORIGINATOR     = 

OBJECT_NAME    = STARLINK-36343
OBJECT_ID      = 2026-032V
CENTER_NAME    = EARTH
REF_FRAME      = TEME
TIME_SYSTEM    = UTC
MEAN_ELEMENT_THEORY = SGP/SGP4

EPOCH          = 2026-03-07T14:00:01.000224
MEAN_MOTION    = 15.77145047
ECCENTRICITY   = .00020966
INCLINATION    = 97.2841
RA_OF_ASC_NODE = 253.0696
ARG_OF_PERICENTER = 77.0326
MEAN_ANOMALY   = 107.4405

EPHEMERIS_TYPE = 0
CLASSIFICATION_TYPE = U
NORAD_CAT_ID   = 67816
ELEMENT_SET_NO = 999
REV_AT_EPOCH   = 438
BSTAR          = -.13572766E-1
MEAN_MOTION_DOT = -.1920722E-1
MEAN_MOTION_DDOT = 0

CCSDS_OMM_VERS = 2.0
CREATION_DATE  = 
ORIGINATOR     = 

OBJECT_NAME    = STARLINK-36756
OBJECT_ID      = 2026-032W
CENTER_NAME    = EARTH
REF_FRAME      = TEME
TIME_SYSTEM    = UTC
MEAN_ELEMENT_THEORY = SGP/SGP4

EPOCH          = 2026-03-07T13:28:30.876672
MEAN_MOTION    = 15.75238758
ECCENTRICITY   = .00014773
INCLINATION    = 97.2847
RA_OF_ASC_NODE = 253.0212
ARG_OF_PERICENTER = 61.1125
MEAN_ANOMALY   = 299.0288

EPHEMERIS_TYPE = 0
CLASSIFICATION_TYPE = U
NORAD_CAT_ID   = 67817
ELEMENT_SET_NO = 999
REV_AT_EPOCH   = 444
BSTAR          = .80776048E-3
MEAN_MOTION_DOT = .122352E-2
MEAN_MOTION_DDOT = 0

CCSDS_OMM_VERS = 2.0
CREATION_DATE  = 
ORIGINATOR     = 

OBJECT_NAME    = STARLINK-36346
OBJECT_ID      = 2026-032X
CENTER_NAME    = EARTH
REF_FRAME      = TEME
TIME_SYSTEM    = UTC
MEAN_ELEMENT_THEORY = SGP/SGP4

EPOCH          = 2026-03-07T14:00:01.000224
MEAN_MOTION    = 15.75312615
ECCENTRICITY   = .00016156
INCLINATION    = 97.2842
RA_OF_ASC_NODE = 253.0810
ARG_OF_PERICENTER = 71.2534
MEAN_ANOMALY   = 138.7712

EPHEMERIS_TYPE = 0
CLASSIFICATION_TYPE = U
NORAD_CAT_ID   = 67818
ELEMENT_SET_NO = 999
REV_AT_EPOCH   = 444
BSTAR          = -.15808648E-2
MEAN_MOTION_DOT = -.230909E-2
MEAN_MOTION_DDOT = 0

CCSDS_OMM_VERS = 2.0
CREATION_DATE  = 
ORIGINATOR     = 

OBJECT_NAME    = STARLINK-36788
OBJECT_ID      = 2026-032Y
CENTER_NAME    = EARTH
REF_FRAME      = TEME
TIME_SYSTEM    = UTC
MEAN_ELEMENT_THEORY = SGP/SGP4

EPOCH          = 2026-03-07T13:44:15.964800
MEAN_MOTION    = 15.75277069
ECCENTRICITY   = .00013797
INCLINATION    = 97.2849
RA_OF_ASC_NODE = 253.0062
ARG_OF_PERICENTER = 76.8988
MEAN_ANOMALY   = 283.2432

EPHEMERIS_TYPE = 0
CLASSIFICATION_TYPE = U
NORAD_CAT_ID   = 67819
ELEMENT_SET_NO = 999
REV_AT_EPOCH   = 445
BSTAR          = .16048462E-2
MEAN_MOTION_DOT = .247233E-2
MEAN_MOTION_DDOT = 0

CCSDS_OMM_VERS = 2.0
CREATION_DATE  = 
ORIGINATOR     = 

OBJECT_NAME    = STARLINK-36353
OBJECT_ID      = 2026-032Z
CENTER_NAME    = EARTH
REF_FRAME      = TEME
TIME_SYSTEM    = UTC
MEAN_ELEMENT_THEORY = SGP/SGP4

EPOCH          = 2026-03-07T13:38:40.697376
MEAN_MOTION    = 15.75277147
ECCENTRICITY   = .00014424
INCLINATION    = 97.2848
RA_OF_ASC_NODE = 253.0111
ARG_OF_PERICENTER = 83.9076
MEAN_ANOMALY   = 276.2353

EPHEMERIS_TYPE = 0
CLASSIFICATION_TYPE = U
NORAD_CAT_ID   = 67820
ELEMENT_SET_NO = 999
REV_AT_EPOCH   = 445
BSTAR          = .15504218E-2
MEAN_MOTION_DOT = .238601E-2
MEAN_MOTION_DDOT = 0

CCSDS_OMM_VERS = 2.0
CREATION_DATE  = 
ORIGINATOR     = 

OBJECT_NAME    = STARLINK-36644
OBJECT_ID      = 2026-033A
CENTER_NAME    = EARTH
REF_FRAME      = TEME
TIME_SYSTEM    = UTC
MEAN_ELEMENT_THEORY = SGP/SGP4

EPOCH          = 2026-03-07T14:39:42.570432
MEAN_MOTION    = 15.82450958
ECCENTRICITY   = .00025967
INCLINATION    = 42.9977
RA_OF_ASC_NODE = 284.2648
ARG_OF_PERICENTER = 251.6239
MEAN_ANOMALY   = 108.4351

EPHEMERIS_TYPE = 0
CLASSIFICATION_TYPE = U
NORAD_CAT_ID   = 67821
ELEMENT_SET_NO = 999
REV_AT_EPOCH   = 429
BSTAR          = .38534558E-2
MEAN_MOTION_DOT = .921648E-2
MEAN_MOTION_DDOT = 0

CCSDS_OMM_VERS = 2.0
CREATION_DATE  = 
ORIGINATOR     = 

OBJECT_NAME    = STARLINK-36643
OBJECT_ID      = 2026-033B
CENTER_NAME    = EARTH
REF_FRAME      = TEME
TIME_SYSTEM    = UTC
MEAN_ELEMENT_THEORY = SGP/SGP4

EPOCH          = 2026-03-07T14:38:37.595040
MEAN_MOTION    = 15.82429652
ECCENTRICITY   = .00035232
INCLINATION    = 42.9975
RA_OF_ASC_NODE = 284.2589
ARG_OF_PERICENTER = 260.5692
MEAN_ANOMALY   = 99.4782

EPHEMERIS_TYPE = 0
CLASSIFICATION_TYPE = U
NORAD_CAT_ID   = 67822
ELEMENT_SET_NO = 999
REV_AT_EPOCH   = 429
BSTAR          = .37467406E-2
MEAN_MOTION_DOT = .892022E-2
MEAN_MOTION_DDOT = 0

CCSDS_OMM_VERS = 2.0
CREATION_DATE  = 
ORIGINATOR     = 

OBJECT_NAME    = STARLINK-36646
OBJECT_ID      = 2026-033C
CENTER_NAME    = EARTH
REF_FRAME      = TEME
TIME_SYSTEM    = UTC
MEAN_ELEMENT_THEORY = SGP/SGP4

EPOCH          = 2026-03-07T14:37:32.927232
MEAN_MOTION    = 15.82072260
ECCENTRICITY   = .00020687
INCLINATION    = 42.9975
RA_OF_ASC_NODE = 284.2532
ARG_OF_PERICENTER = 263.5458
MEAN_ANOMALY   = 96.5178

EPHEMERIS_TYPE = 0
CLASSIFICATION_TYPE = U
NORAD_CAT_ID   = 67823
ELEMENT_SET_NO = 999
REV_AT_EPOCH   = 429
BSTAR          = .14700325E-2
MEAN_MOTION_DOT = .321629E-2
MEAN_MOTION_DDOT = 0

CCSDS_OMM_VERS = 2.0
CREATION_DATE  = 
ORIGINATOR     = 

OBJECT_NAME    = STARLINK-36647
OBJECT_ID      = 2026-033D
CENTER_NAME    = EARTH
REF_FRAME      = TEME
TIME_SYSTEM    = UTC
MEAN_ELEMENT_THEORY = SGP/SGP4

EPOCH          = 2026-03-07T14:36:28.238688
MEAN_MOTION    = 15.82042198
ECCENTRICITY   = .00018906
INCLINATION    = 42.9977
RA_OF_ASC_NODE = 284.2471
ARG_OF_PERICENTER = 281.1290
MEAN_ANOMALY   = 78.9369

EPHEMERIS_TYPE = 0
CLASSIFICATION_TYPE = U
NORAD_CAT_ID   = 67824
ELEMENT_SET_NO = 999
REV_AT_EPOCH   = 429
BSTAR          = .12094518E-2
MEAN_MOTION_DOT = .262324E-2
MEAN_MOTION_DDOT = 0

CCSDS_OMM_VERS = 2.0
CREATION_DATE  = 
ORIGINATOR     = 

OBJECT_NAME    = STARLINK-36648
OBJECT_ID      = 2026-033E
CENTER_NAME    = EARTH
REF_FRAME      = TEME
TIME_SYSTEM    = UTC
MEAN_ELEMENT_THEORY = SGP/SGP4

EPOCH          = 2026-03-07T14:35:23.353152
MEAN_MOTION    = 15.82096027
ECCENTRICITY   = .00019985
INCLINATION    = 42.9978
RA_OF_ASC_NODE = 284.2412
ARG_OF_PERICENTER = 287.4872
MEAN_ANOMALY   = 72.5782

EPHEMERIS_TYPE = 0
CLASSIFICATION_TYPE = U
NORAD_CAT_ID   = 67825
ELEMENT_SET_NO = 999
REV_AT_EPOCH   = 429
BSTAR          = .19961235E-2
MEAN_MOTION_DOT = .443706E-2
MEAN_MOTION_DDOT = 0

